OSCAR 7 (AO-7)          
1 07530U 74089B   18303.83932750 -.00000028  00000-0  10565-3 0  9996
2 07530 101.7073 269.2146 0012478  72.6919 353.9792 12.53635076 11594
UOSAT 2 (UO-11)         
1 14781U 84021B   18303.88736702  .00000042  00000-0  11368-4 0  9991
2 14781  97.6362 334.2185 0008528   8.0669 352.0681 14.83040108864556
LUSAT (LO-19)           
1 20442U 90005G   18303.81919796  .00000016  00000-0  21968-4 0  9998
2 20442  98.6212 241.5376 0012811 108.2331 252.0248 14.32908366503318
ITAMSAT (IO-26)         
1 22826U 93061D   18304.01358319  .00000010  00000-0  21684-4 0  9991
2 22826  98.8734 282.7183 0008077 304.6554  55.3865 14.30375277309172
RADIO ROSTO (RS-15)     
1 23439U 94085A   18303.58101340 -.00000053  00000-0 -31148-3 0  9994
2 23439  64.8134 129.8694 0152795 157.2551 264.3190 11.27568838981836
JAS-2 (FO-29)           
1 24278U 96046B   18304.51015533 -.00000019  00000-0  13372-4 0  9998
2 24278  98.5143 124.4765 0351245 117.1134 246.6288 13.53086461 96673
TECHSAT 1B (GO-32)      
1 25397U 98043D   18304.09705124 -.00000003  00000-0  17923-4 0  9994
2 25397  98.6618 242.3521 0001549  31.5668 328.5603 14.23654011 55063
ISS (ZARYA)             
1 25544U 98067A   18304.56223880  .00001071  00000-0  23619-4 0  9994
2 25544  51.6418  59.1223 0004269 356.8223 116.4975 15.53880584139721
PCSAT (NO-44)           
1 26931U 01043C   18304.34102783 -.00000031  00000-0  19860-4 0  9996
2 26931  67.0515 238.0829 0006836 258.7930 101.2403 14.30521610892021
SAUDISAT 1C (SO-50)     
1 27607U 02058C   18303.63330128 -.00000017  00000-0  18478-4 0  9999
2 27607  64.5567  35.9932 0077110 300.5035  58.8470 14.75491889852946
CUTE-1 (CO-55)          
1 27844U 03031E   18304.02844035  .00000039  00000-0  37192-4 0  9992
2 27844  98.6874 310.6841 0009470 344.8769  15.2124 14.22141037795509
CUBESAT XI-IV (CO-57)   
1 27848U 03031J   18304.02573338  .00000026  00000-0  31624-4 0  9991
2 27848  98.6958 311.1227 0009566 356.0587   4.0513 14.21741668795366
MOZHAYETS 4 (RS-22)     
1 27939U 03042A   18304.53763243  .00000179  00000-0  40567-4 0  9991
2 27939  98.0100  80.3137 0014240  78.0736 282.2068 14.66727864806805
CUBESAT XI-V (CO-58)    
1 28895U 05043F   18304.18968407  .00000137  00000-0  35162-4 0  9995
2 28895  97.9280  90.2946 0016789   4.4188 355.7160 14.63596219693770
CUTE-1.7+APD II (CO-65) 
1 32785U 08021C   18304.54200849  .00000173  00000-0  24317-4 0  9996
2 32785  97.5472 310.2118 0011885 310.9020  49.1168 14.88197392569455
DELFI-C3 (DO-64)        
1 32789U 08021G   18303.36780884  .00001385  00000-0  97999-4 0  9993
2 32789  97.4969 354.6672 0012264 189.7686 170.3305 15.06406772572133
SEEDS II (CO-66)        
1 32791U 08021J   18304.54119895  .00000190  00000-0  24772-4 0  9997
2 32791  97.5327 315.8547 0011915 286.4746  73.5163 14.90659484569829
YUBILEINY (RS-30)       
1 32953U 08025A   18304.46008083  .00000020  00000-0  75656-4 0  9997
2 32953  82.4990 287.9229 0017917 273.8894  86.0138 12.43086374473706
KKS-1 (KISEKI)          
1 33499U 09002H   18303.82075382  .00000099  00000-0  22693-4 0  9993
2 33499  98.3568 130.0271 0008425 215.2852 144.7800 14.75375067525187
SWISSCUBE               
1 35932U 09051B   18304.21279962  .00000143  00000-0  43264-4 0  9992
2 35932  98.5629  98.7935 0008286 146.3443 213.8282 14.56210215483236
BEESAT                  
1 35933U 09051C   18304.43672476  .00000109  00000-0  35694-4 0  9994
2 35933  98.5665 100.6557 0006310 155.8009 204.3485 14.56308230483379
ITUPSAT 1               
1 35935U 09051E   18304.43124377  .00000096  00000-0  33314-4 0  9990
2 35935  98.5777 100.8996 0008656 154.5321 205.6304 14.55479187483140
XIWANG-1 (HOPE-1)       
1 36122U 09072B   18303.45325130 -.00000027  00000-0  40186-4 0  9993
2 36122 100.0735 311.7423 0007715 156.0536 204.0940 13.16347026426452
JUGNU                   
1 37839U 11058B   18303.34376473  .00000319  00000-0  28174-4 0  9996
2 37839  19.9620 297.6796 0018717 297.0748 190.9515 14.12632952364509
SRMSAT                  
1 37841U 11058D   18303.55537885  .00000311  00000-0  25746-4 0  9992
2 37841  19.9732 348.3912 0011785 176.7071 307.3364 14.10617824363920
M-CUBED & EXP-1 PRIME   
1 37855U 11061F   18303.33124342  .00000538  00000-0  35329-4 0  9996
2 37855 101.7201  75.0214 0175317  42.1666 319.2880 15.04837304381974
STRAND-1                
1 39090U 13009E   18304.14238030  .00000031  00000-0  26078-4 0  9992
2 39090  98.5072 148.6747 0008073 252.4489 107.5814 14.35056037297326
SOMP                    
1 39134U 13015E   18304.18882596  .00001056  00000-0  58820-4 0  9992
2 39134  64.8650  46.8518 0006649 313.1028  46.9542 15.19536307305565
BEESAT-3                
1 39135U 13015F   18303.58003335  .00001076  00000-0  64084-4 0  9993
2 39135  64.8696  63.9575 0009184 246.8385 113.1774 15.16971347304796
BEESAT-2                
1 39136U 13015G   18303.59795508  .00000785  00000-0  50144-4 0  9993
2 39136  64.8701  67.0570 0010851 244.2714 115.7292 15.16424334304731
ZACUBE-1 (TSHEPISOSAT)  
1 39417U 13066B   18303.64718070  .00000187  00000-0  29778-4 0  9991
2 39417  97.5779 324.9868 0060461  71.9199 288.8588 14.81000991266849
GOMX 1                  
1 39430U 13066Q   18304.42654461  .00000169  00000-0  40072-4 0  9996
2 39430  97.7141 271.6043 0149960 260.6839  97.7381 14.59148688263028
CUBEBUG-2 (LO-74)       
1 39440U 13066AA  18303.54839098  .00000181  00000-0  31986-4 0  9998
2 39440  97.6001 310.7348 0081764 115.4724 245.4973 14.75740775265881
FUNCUBE-1 (AO-73)       
1 39444U 13066AE  18303.63848244  .00000230  00000-0  34624-4 0  9992
2 39444  97.5781 326.6721 0059528  66.9373 293.8102 14.81798410265712
UWE-3                   
1 39446U 13066AG  18303.60999723  .00000181  00000-0  30531-4 0  9998
2 39446  97.5875 317.4310 0071647  94.0396 266.9010 14.78275331265125
SPROUT                  
1 39770U 14029E   18304.45896066  .00000640  00000-0  77508-4 0  9993
2 39770  97.8815  44.4237 0010172 117.6968 242.5286 14.87033520240614
UNISAT-6                
1 40012U 14033C   18303.65605992  .00000150  00000-0  29684-4 0  9994
2 40012  97.7865 174.7572 0059521 122.0548 238.6461 14.73882319234654
DUCHIFAT-1              
1 40021U 14033M   18304.35019942  .00000313  00000-0  37984-4 0  9999
2 40021  97.9148 223.3016 0014395  89.1982 271.0885 14.90427304237235
FUNCUBE-3 (EO-79)       
1 40025U 14033R   18304.31746819  .00000273  00000-0  35168-4 0  9996
2 40025  97.9017 219.4034 0013879  96.3353 263.9445 14.88801787237047
NUDT-PHONESAT           
1 40900U 15049B   18304.52223369  .00001766  00000-0  80654-4 0  9997
2 40900  97.4416 311.2524 0011536 273.6573 207.5499 15.21863542172646
ZDPS 2A                 
1 40901U 15049C   18304.55620672  .00000839  00000-0  45374-4 0  9999
2 40901  97.4599 308.8043 0012075 287.1298 198.1266 15.17330022172330
ZDPS 2B                 
1 40902U 15049D   18304.41325669  .00000822  00000-0  44779-4 0  9993
2 40902  97.4519 306.4738 0012077 284.3088 181.7639 15.17115606172292
XW-2A                   
1 40903U 15049E   18304.38565722  .00001540  00000-0  39370-4 0  9995
2 40903  97.3700 340.5302 0012152 258.1202 198.6381 15.41002210174770
KAITUO 1A               
1 40904U 15049F   18304.53050926  .00000546  00000-0  32620-4 0  9994
2 40904  97.4630 305.6091 0013187 288.8147 184.5200 15.15153657172144
2015-049G               
1 40905U 15049G   18304.45794906  .00000279  00000-0  18927-4 0  9996
2 40905  97.4636 303.3958 0014127 281.3617 239.7805 15.14093958172031
XW-2C                   
1 40906U 15049H   18304.37261471  .00000328  00000-0  20887-4 0  9997
2 40906  97.4633 305.4112 0013474 279.8001 187.5433 15.15371971172118
XW-2D                   
1 40907U 15049J   18304.45253178  .00000396  00000-0  24340-4 0  9995
2 40907  97.4609 305.1737 0012616 276.0740 243.4767 15.15537044172137
LILACSAT 2              
1 40908U 15049K   18304.55368183  .00000412  00000-0  26516-4 0  9996
2 40908  97.4726 304.4495 0014417 280.4309 196.2191 15.13621925171991
XW-2F                   
1 40910U 15049M   18304.48793516  .00001076  00000-0  58042-4 0  9999
2 40910  97.4607 306.7720 0013241 272.3118 247.0529 15.16822056172116
XW-2B                   
1 40911U 15049N   18304.47415461  .00000800  00000-0  45715-4 0  9996
2 40911  97.4645 305.7816 0012586 278.6977 234.7861 15.15479208172036
KAITUO 1B               
1 40912U 15049P   18304.39368961  .00001015  00000-0  51589-4 0  9995
2 40912  97.4515 309.8315 0013561 255.8945 211.7352 15.19074198172345
TIANWANG 1C (TW-1C)     
1 40926U 15051B   18304.48338088  .00007775  00000-0  13396-3 0  9992
2 40926  97.1704 346.2683 0011228 135.6310 331.7966 15.51269018174427
TIANWANG 1A (TW-1A)     
1 40928U 15051D   18304.55511503  .00002201  00000-0  58208-4 0  9998
2 40928  97.1731 335.8095 0011588 178.1957 311.8493 15.39408945173757
LAPAN-A2 (IO-86)        
1 40931U 15052B   18304.29540794  .00000696  00000-0  80191-5 0  9991
2 40931   6.0034 259.5810 0012522 133.9942 226.1274 14.76589450167158
E-ST@R-II               
1 41459U 16025D   18304.44633887  .00001180  00000-0  64682-4 0  9996
2 41459  98.1232  14.2901 0171196  51.9355 309.7171 15.04801281137919
AAUSAT 4                
1 41460U 16025E   18304.15521986  .00001330  00000-0  71496-4 0  9990
2 41460  98.1155  14.7200 0161433  47.3747 314.1002 15.06391910137951
NUSAT 1 (LO-87)         
1 41557U 16033B   18304.50182558  .00000895  00000-0  36461-4 0  9991
2 41557  97.4316  28.2777 0013850  35.3743 324.8412 15.27052841134961
BEESAT-4                
1 41619U 16040W   18303.14819071  .00001118  00000-0  51185-4 0  9993
2 41619  97.4001   4.3438 0013093 114.2683 245.9922 15.22494276118620
ALSAT 1N                
1 41789U 16059G   18304.43032334  .00000101  00000-0  28329-4 0  9998
2 41789  98.1041   5.1792 0028871  21.6560 338.5859 14.64190852111952
CAS-2T & KS-1Q          
1 41847U 16066G   18304.15048544  .00000009  00000-0  12162-4 0  9995
2 41847  98.7380 335.8214 0365825 200.3362 158.2932 14.37932061103866
NAYIF-1 (EO-88)         
1 42017U 17008BX  18303.42832264  .00001163  00000-0  49738-4 0  9992
2 42017  97.4339   7.6046 0004720 261.5725  98.4978 15.24841907 94677
LILACSAT-1              
1 42725U 98067ME  18304.46482925  .00038711  00000-0  22651-3 0  9995
2 42725  51.6375  19.3207 0005587  16.2282  73.3884 15.77927874 81972
MAX VALIER SAT          
1 42778U 17036P   18304.12575426  .00000707  00000-0  34392-4 0  9992
2 42778  97.3878   1.4827 0011313 319.0649  40.9737 15.21575858 75172
FOX-1B (AO-91)          
1 43017U 17073E   18303.80237299  .00000298  00000-0  29029-4 0  9993
2 43017  97.7124 229.3194 0258887 189.8312 169.7781 14.78253371 51148
FOX-1D (AO-92)          
1 43137U 18004AC  18304.18029023  .00000739  00000-0  34480-4 0  9994
2 43137  97.5186   7.1600 0009096 354.6636   5.4502 15.22988557 44407
